[{"OBJECT_NAME":"VIZARD-METEO (RS38S)","OBJECT_ID":"2023-091Z","EPOCH":"2026-03-09T23:01:09.168960","MEAN_MOTION":15.32764799,"ECCENTRICITY":0.00087615,"INCLINATION":97.5192,"RA_OF_ASC_NODE":136.6522,"ARG_OF_PERICENTER":71.7666,"MEAN_ANOMALY":288.4529,"EPHEMERIS_TYPE":0,"CLASSIFICATION_TYPE":"U","NORAD_CAT_ID":57189,"ELEMENT_SET_NO":999,"REV_AT_EPOCH":14947,"BSTAR":0.00066106249,"MEAN_MOTION_DOT":0.00020895,"MEAN_MOTION_DDOT":0},{"OBJECT_NAME":"STARLINK-34609","OBJECT_ID":"2025-147P","EPOCH":"2026-03-09T18:22:24.814272","MEAN_MOTION":15.30183918,"ECCENTRICITY":0.00011648,"INCLINATION":53.1589,"RA_OF_ASC_NODE":232.4432,"ARG_OF_PERICENTER":75.4751,"MEAN_ANOMALY":284.6379,"EPHEMERIS_TYPE":0,"CLASSIFICATION_TYPE":"U","NORAD_CAT_ID":64768,"ELEMENT_SET_NO":999,"REV_AT_EPOCH":3890,"BSTAR":0.0013162148,"MEAN_MOTION_DOT":0.00038808,"MEAN_MOTION_DDOT":0}]
